LANDSAT 9               
1 49260U 21088A   24244.91353843  .00001432  00000+0  32768-3 0  9990
2 49260  98.2264 313.5744 0001193  93.5445 266.5889 14.57122113155726
